TEVEL2-1                
1 63217U 25052H   26068.64782323  .00020683  00000+0  70600-3 0  9994
2 63217  97.3991 324.7682 0004767 104.8919 255.2849 15.30341923 54855
STARLINK-34282          
1 64454U 25130S   26068.33369582  .00027848  00000+0  94858-3 0  9990
2 64454  53.1593  92.6673 0000977  84.0879 276.0233 15.30208456 40611
